OBJECT_NAME,OBJECT_ID,EPOCH,MEAN_MOTION,ECCENTRICITY,INCLINATION,RA_OF_ASC_NODE,ARG_OF_PERICENTER,MEAN_ANOMALY,EPHEMERIS_TYPE,CLASSIFICATION_TYPE,NORAD_CAT_ID,ELEMENT_SET_NO,REV_AT_EPOCH,BSTAR,MEAN_MOTION_DOT,MEAN_MOTION_DDOT
BEIDOU-2 G3,2010-024A,2026-07-07T02:08:58.320096,1.00270091,.0007631,4.5599,61.4257,359.1395,336.3828,0,U,36590,999,5896,0,-.123E-5,0
BADR-5,2010-025A,2026-07-07T03:50:38.879808,1.00271761,.0004801,0.0602,111.3372,80.5808,181.3276,0,U,36592,999,5341,0,.169E-5,0
COMS 1,2010-032A,2026-07-06T22:19:24.756096,0.99169419,.0011491,4.8526,75.1202,14.6082,164.9044,0,U,36744,999,5128,0,-.174E-5,0
ARABSAT-5A,2010-032B,2026-07-07T03:50:38.879808,1.00270250,.000558,0.0932,62.1190,54.5208,256.6324,0,U,36745,999,5884,0,.168E-5,0
ECHOSTAR 15,2010-034A,2026-07-07T01:12:17.267040,1.00270469,.000224,0.0231,301.8680,138.4788,103.9385,0,U,36792,999,5852,0,.15E-6,0
BEIDOU-2 IGSO-1,2010-036A,2026-07-06T19:47:05.593056,1.00266641,.0059267,54.3063,162.7828,225.2322,300.9018,0,U,36828,999,5829,0,-.61E-6,0
NILESAT 201,2010-037A,2026-07-07T01:44:15.689184,1.00271785,.000544,0.0026,95.3038,37.9515,170.8645,0,U,36830,999,5857,0,-.43E-6,0
RASCOM-QAF 1R,2010-037B,2026-07-07T03:29:38.218272,1.00271589,.0006477,0.0153,64.3258,33.3317,242.7455,0,U,36831,999,5850,0,.33E-6,0
AEHF-1 (USA 214),2010-039A,2026-07-06T19:25:13.718784,1.00270889,.0003871,8.2660,67.7880,34.8424,143.3911,0,U,36868,999,5385,0,.158E-5,0
XM-5,2010-053A,2026-07-07T02:56:02.406912,1.00270965,.0001735,0.0654,268.3056,309.5249,356.0806,0,U,37185,999,5768,0,-.8E-7,0
BSAT-3B,2010-056B,2026-07-06T15:12:46.727424,1.00270945,.0002443,0.0530,225.4860,316.5972,80.5648,0,U,37207,999,5229,0,-.335E-5,0
BEIDOU-2 G4,2010-057A,2026-07-07T02:31:48.631008,1.00270870,.0005114,3.6931,68.8267,186.2567,227.9115,0,U,37210,999,5749,0,-.1E-5,0
SKYTERRA 1,2010-061A,2026-07-07T03:00:02.025216,1.00271140,.0002366,5.1647,50.8151,32.1271,145.8347,0,U,37218,999,5739,0,-.106E-5,0
HYLAS 1,2010-065A,2026-06-30T07:17:51.718848,1.00272596,.00010436,5.6751,72.8623,340.0885,348.6881,0,U,37237,999,701,0,.96E-6,0
INTELSAT 17 (IS-17),2010-065B,2026-07-07T03:47:43.982016,1.00272512,.0002595,0.0081,71.7599,39.3646,296.9251,0,U,37238,999,5344,0,.13E-6,0
BEIDOU-2 IGSO-2,2010-068A,2026-07-06T16:01:03.619200,1.00276802,.0056612,47.5121,271.5911,213.5272,148.0884,0,U,37256,999,5699,0,-.202E-5,0
EUTELSAT KA-SAT 9A,2010-069A,2026-07-07T01:48:45.258048,1.00269551,.0004059,0.0605,12.3708,125.7834,183.0638,0,U,37258,999,4420,0,.76E-6,0
HISPASAT 30W-5,2010-070A,2026-07-06T15:21:45.689760,1.00270016,.0005724,0.0463,104.5765,13.8936,6.5809,0,U,37264,999,5338,0,-.201E-5,0
KOREASAT 6,2010-070B,2026-07-06T19:41:13.035264,1.00272355,.0002578,0.0214,286.4075,192.8477,260.7411,0,U,37265,999,5696,0,-.96E-6,0
BEIDOU-2 IGSO-3,2011-013A,2026-07-06T12:35:26.043936,1.00262965,.0035245,62.4337,39.9702,183.2519,357.0849,0,U,37384,999,5585,0,-.17E-5,0
INTELSAT 28 (IS-28),2011-016A,2026-07-06T17:03:50.175360,1.00270512,.0003753,1.8534,82.3902,27.7420,38.7679,0,U,37392,999,5348,0,-.211E-5,0
YAHSAT 1A,2011-016B,2026-07-07T03:43:51.852864,1.00270297,.0002904,0.0214,45.9079,65.1775,282.5047,0,U,37393,999,4260,0,0,0
SBIRS GEO-1 (USA 230),2011-019A,2026-07-07T03:43:36.878016,1.00272160,.0001965,4.5795,53.1113,44.6902,295.0221,0,U,37481,999,5559,0,.112E-5,0
TELSTAR 14R,2011-021A,2026-07-07T01:28:13.651968,1.00270573,.0001956,0.0650,84.2131,355.9494,163.9346,0,U,37602,999,5603,0,-.265E-5,0
GSAT-8,2011-022A,2026-07-07T03:44:36.780864,1.00270771,.0002425,2.1794,81.5860,166.6325,148.1403,0,U,37605,999,5341,0,.99E-6,0
ST-2,2011-022B,2026-07-06T19:32:34.185984,1.00270340,.0001637,0.0212,80.9853,44.8324,180.1328,0,U,37606,999,5547,0,-.196E-5,0
ZHONGXING-10,2011-026A,2026-07-07T02:10:35.665248,1.00270611,.0003678,1.0953,83.9915,16.6786,302.5673,0,U,37677,999,5519,0,-.174E-5,0
SES-3,2011-035A,2026-07-07T02:56:28.870368,1.00271573,.0002116,1.3751,82.8782,18.9665,124.3799,0,U,37748,999,5479,0,-.87E-6,0
KAZSAT-2,2011-035B,2026-07-07T03:53:35.921184,1.00271001,.0001941,0.0290,148.5867,16.4841,264.9791,0,U,37749,999,5359,0,-.182E-5,0
BEIDOU-2 IGSO-4,2011-038A,2026-07-06T20:09:40.657824,1.00281732,.016007,54.6039,165.4986,231.4311,284.4062,0,U,37763,999,5484,0,.48E-6,0
ASTRA 1N,2011-041A,2026-07-07T03:58:38.786880,1.00274485,.0005808,0.0684,26.0919,83.4746,254.4520,0,U,37775,999,4472,0,.135E-5,0
BSAT-3C (JCSAT-110R),2011-041B,2026-07-07T03:57:38.522880,1.00270927,.0000067,0.0187,336.5969,253.9335,223.9821,0,U,37776,999,5067,0,-.335E-5,0
