BEIDOU-2 G3             
1 36590U 10024A   26188.08956389 -.00000123  00000+0  00000+0 0  9998
2 36590   4.5599  61.4257 0007631 359.1395 336.3828  1.00270091 58965
BADR-5                  
1 36592U 10025A   26188.16017222  .00000169  00000+0  00000+0 0  9993
2 36592   0.0602 111.3372 0004801  80.5808 181.3276  1.00271761 53411
COMS 1                  
1 36744U 10032A   26187.93014764 -.00000174  00000+0  00000+0 0  9999
2 36744   4.8526  75.1202 0011491  14.6082 164.9044  0.99169419 51287
ARABSAT-5A              
1 36745U 10032B   26188.16017222  .00000168  00000+0  00000+0 0  9990
2 36745   0.0932  62.1190 0005580  54.5208 256.6324  1.00270250 58842
ECHOSTAR 15             
1 36792U 10034A   26188.05019985  .00000015  00000+0  00000+0 0  9991
2 36792   0.0231 301.8680 0002240 138.4788 103.9385  1.00270469 58526
BEIDOU-2 IGSO-1         
1 36828U 10036A   26187.82437029 -.00000061  00000+0  00000+0 0  9992
2 36828  54.3063 162.7828 0059267 225.2322 300.9018  1.00266641 58292
NILESAT 201             
1 36830U 10037A   26188.07240381 -.00000043  00000+0  00000+0 0  9997
2 36830   0.0026  95.3038 0005440  37.9515 170.8645  1.00271785 58578
RASCOM-QAF 1R           
1 36831U 10037B   26188.14558123  .00000033  00000+0  00000+0 0  9990
2 36831   0.0153  64.3258 0006477  33.3317 242.7455  1.00271589 58504
AEHF-1 (USA 214)        
1 36868U 10039A   26187.80918656  .00000158  00000+0  00000+0 0  9993
2 36868   8.2660  67.7880 0003871  34.8424 143.3911  1.00270889 53853
XM-5                    
1 37185U 10053A   26188.12225008 -.00000008  00000+0  00000+0 0  9995
2 37185   0.0654 268.3056 0001735 309.5249 356.0806  1.00270965 57683
BSAT-3B                 
1 37207U 10056B   26187.63387416 -.00000335  00000+0  00000+0 0  9993
2 37207   0.0530 225.4860 0002443 316.5972  80.5648  1.00270945 52299
BEIDOU-2 G4             
1 37210U 10057A   26188.10542397 -.00000100  00000+0  00000+0 0  9992
2 37210   3.6931  68.8267 0005114 186.2567 227.9115  1.00270870 57497
SKYTERRA 1              
1 37218U 10061A   26188.12502344 -.00000106  00000+0  00000+0 0  9991
2 37218   5.1647  50.8151 0002366  32.1271 145.8347  1.00271140 57391
HYLAS 1                 
1 37237U 10065A   26181.30407082  .00000096  00000+0  00000+0 0  9999
2 37237   5.6751  72.8623 0001043 340.0885 348.6881  1.00272596  7010
INTELSAT 17 (IS-17)     
1 37238U 10065B   26188.15814794  .00000013  00000+0  00000+0 0  9991
2 37238   0.0081  71.7599 0002595  39.3646 296.9251  1.00272512 53444
BEIDOU-2 IGSO-2         
1 37256U 10068A   26187.66740300 -.00000202  00000+0  00000+0 0  9991
2 37256  47.5121 271.5911 0056612 213.5272 148.0884  1.00276802 56991
EUTELSAT KA-SAT 9A      
1 37258U 10069A   26188.07552382  .00000076  00000+0  00000+0 0  9999
2 37258   0.0605  12.3708 0004059 125.7834 183.0638  1.00269551 44205
HISPASAT 30W-5          
1 37264U 10070A   26187.64011215 -.00000201  00000+0  00000+0 0  9996
2 37264   0.0463 104.5765 0005724  13.8936   6.5809  1.00270016 53387
KOREASAT 6              
1 37265U 10070B   26187.82028976 -.00000096  00000+0  00000+0 0  9991
2 37265   0.0214 286.4075 0002578 192.8477 260.7411  1.00272355 56966
BEIDOU-2 IGSO-3         
1 37384U 11013A   26187.52460699 -.00000170  00000+0  00000+0 0  9993
2 37384  62.4337  39.9702 0035245 183.2519 357.0849  1.00262965 55850
INTELSAT 28 (IS-28)     
1 37392U 11016A   26187.71099740 -.00000211  00000+0  00000+0 0  9997
2 37392   1.8534  82.3902 0003753  27.7420  38.7679  1.00270512 53489
YAHSAT 1A               
1 37393U 11016B   26188.15546126  .00000000  00000+0  00000+0 0  9997
2 37393   0.0214  45.9079 0002904  65.1775 282.5047  1.00270297 42602
SBIRS GEO-1 (USA 230)   
1 37481U 11019A   26188.15528794  .00000112  00000+0  00000+0 0  9993
2 37481   4.5795  53.1113 0001965  44.6902 295.0221  1.00272160 55599
TELSTAR 14R             
1 37602U 11021A   26188.06126912 -.00000265  00000+0  00000+0 0  9997
2 37602   0.0650  84.2131 0001956 355.9494 163.9346  1.00270573 56031
GSAT-8                  
1 37605U 11022A   26188.15598126  .00000099  00000+0  00000+0 0  9995
2 37605   2.1794  81.5860 0002425 166.6325 148.1403  1.00270771 53415
ST-2                    
1 37606U 11022B   26187.81428456 -.00000196  00000+0  00000+0 0  9995
2 37606   0.0212  80.9853 0001637  44.8324 180.1328  1.00270340 55475
ZHONGXING-10            
1 37677U 11026A   26188.09069057 -.00000174  00000+0  00000+0 0  9992
2 37677   1.0953  83.9915 0003678  16.6786 302.5673  1.00270611 55197
SES-3                   
1 37748U 11035A   26188.12255637 -.00000087  00000+0  00000+0 0  9999
2 37748   1.3751  82.8782 0002116  18.9665 124.3799  1.00271573 54794
KAZSAT-2                
1 37749U 11035B   26188.16222131 -.00000182  00000+0  00000+0 0  9993
2 37749   0.0290 148.5867 0001941  16.4841 264.9791  1.00271001 53593
BEIDOU-2 IGSO-4         
1 37763U 11038A   26187.84005391  .00000048  00000+0  00000+0 0  9993
2 37763  54.6039 165.4986 0160070 231.4311 284.4062  1.00281732 54844
ASTRA 1N                
1 37775U 11041A   26188.16572670  .00000135  00000+0  00000+0 0  9992
2 37775   0.0684  26.0919 0005808  83.4746 254.4520  1.00274485 44729
BSAT-3C (JCSAT-110R)    
1 37776U 11041B   26188.16502920 -.00000335  00000+0  00000+0 0  9997
2 37776   0.0187 336.5969 0000067 253.9335 223.9821  1.00270927 50675
